[
  {
    "OBJECT_NAME": "STARLINK-35192",
    "OBJECT_ID": "25225Z",
    "EPOCH": "2025-11-11T06:31:12.903168",
    "MEAN_MOTION": 15.49325059,
    "ECCENTRICITY": 8.06e-05,
    "INCLINATION": 53.161,
    "RA_OF_ASC_NODE": 356.7173,
    "ARG_OF_PERICENTER": 70.8812,
    "MEAN_ANOMALY": 289.2284,
    "EPHEMERIS_TYPE": 0,
    "CLASSIFICATION_TYPE": "U",
    "NORAD_CAT_ID": 65933,
    "ELEMENT_SET_NO": 999,
    "REV_AT_EPOCH": 626,
    "BSTAR": 0.0025685000000000005,
    "MEAN_MOTION_DOT": 0.0014517,
    "MEAN_MOTION_DDOT": 0.0,
    "TLE_LINE1": "1 65933U 25225Z   25315.27167712  .00145170  00000+0  25685-2 0  9996",
    "TLE_LINE2": "2 65933  53.1610 356.7173 0000806  70.8812 289.2284 15.49325059  6268",
    "COMMENT": "Grouped by shell and plane from TLE"
  },
  {
    "OBJECT_NAME": "STARLINK-35155",
    "OBJECT_ID": "25225AB",
    "EPOCH": "2025-11-11T06:31:42.331008",
    "MEAN_MOTION": 15.49398569,
    "ECCENTRICITY": 0.000238,
    "INCLINATION": 53.1607,
    "RA_OF_ASC_NODE": 356.7197,
    "ARG_OF_PERICENTER": 142.1161,
    "MEAN_ANOMALY": 218.0016,
    "EPHEMERIS_TYPE": 0,
    "CLASSIFICATION_TYPE": "U",
    "NORAD_CAT_ID": 65935,
    "ELEMENT_SET_NO": 999,
    "REV_AT_EPOCH": 537,
    "BSTAR": 0.0016304,
    "MEAN_MOTION_DOT": 0.00091588,
    "MEAN_MOTION_DDOT": 0.0,
    "TLE_LINE1": "1 65935U 25225AB  25315.27201772  .00091588  00000+0  16304-2 0  9994",
    "TLE_LINE2": "2 65935  53.1607 356.7197 0002380 142.1161 218.0016 15.49398569  5371",
    "COMMENT": "Grouped by shell and plane from TLE"
  },
  {
    "OBJECT_NAME": "STARLINK-35161",
    "OBJECT_ID": "25225AC",
    "EPOCH": "2025-11-11T04:57:49.367232",
    "MEAN_MOTION": 15.493843,
    "ECCENTRICITY": 3.99e-05,
    "INCLINATION": 53.1604,
    "RA_OF_ASC_NODE": 357.0229,
    "ARG_OF_PERICENTER": 288.8892,
    "MEAN_ANOMALY": 71.2074,
    "EPHEMERIS_TYPE": 0,
    "CLASSIFICATION_TYPE": "U",
    "NORAD_CAT_ID": 65936,
    "ELEMENT_SET_NO": 999,
    "REV_AT_EPOCH": 536,
    "BSTAR": 0.0019938,
    "MEAN_MOTION_DOT": 0.00112345,
    "MEAN_MOTION_DDOT": 0.0,
    "TLE_LINE1": "1 65936U 25225AC  25315.20682138  .00112345  00000+0  19938-2 0  9998",
    "TLE_LINE2": "2 65936  53.1604 357.0229 0000399 288.8892  71.2074 15.49384300  5366",
    "COMMENT": "Grouped by shell and plane from TLE"
  },
  {
    "OBJECT_NAME": "STARLINK-35473",
    "OBJECT_ID": "25225AD",
    "EPOCH": "2025-11-11T06:30:13.688064",
    "MEAN_MOTION": 15.49423964,
    "ECCENTRICITY": 0.0001817,
    "INCLINATION": 53.1609,
    "RA_OF_ASC_NODE": 356.7126,
    "ARG_OF_PERICENTER": 147.5616,
    "MEAN_ANOMALY": 212.5505,
    "EPHEMERIS_TYPE": 0,
    "CLASSIFICATION_TYPE": "U",
    "NORAD_CAT_ID": 65937,
    "ELEMENT_SET_NO": 999,
    "REV_AT_EPOCH": 537,
    "BSTAR": 0.0017081,
    "MEAN_MOTION_DOT": 0.00096117,
    "MEAN_MOTION_DDOT": 0.0,
    "TLE_LINE1": "1 65937U 25225AD  25315.27099176  .00096117  00000+0  17081-2 0  9995",
    "TLE_LINE2": "2 65937  53.1609 356.7126 0001817 147.5616 212.5505 15.49423964  5375",
    "COMMENT": "Grouped by shell and plane from TLE"
  }
]